{
  "type": "FeatureCollection",
  "features": [
    {
      "type": "Feature",
      "properties": {
        "norad_id": 66640,
        "name": "STARLINK-35921",
        "group": "last-30-days",
        "lat": 8.577098507273558,
        "lon": -3.703420898966807,
        "alt_km": 418.4308176711611,
        "timestamp": "2025-12-13T15:35:10.877014+00:00",
        "meta_object_name": "STARLINK-35921",
        "meta_object_id": "2025-271Z",
        "meta_epoch": "2025-12-12T20:00:01.999872",
        "meta_mean_motion": 15.49305641,
        "meta_eccentricity": 0.00013276,
        "meta_inclination": 53.1598,
        "meta_ra_of_asc_node": 186.6923,
        "meta_arg_of_pericenter": 94.5081,
        "meta_mean_anomaly": 200.5056,
        "meta_ephemeris_type": 0,
        "meta_classification_type": "U",
        "meta_norad_cat_id": 66640,
        "meta_element_set_no": 999,
        "meta_rev_at_epoch": 425,
        "meta_bstar": -0.00086907636,
        "meta_mean_motion_dot": -0.00048479,
        "meta_mean_motion_ddot": 0,
        "tle_line1": "1 66640U 25271Z   25346.83335648 -.00048479  00000+0 -86908-3 0  9996",
        "tle_line2": "2 66640  53.1598 186.6923 0001327  94.5081 200.5056 15.49305641  4257"
      },
      "geometry": {
        "type": "Point",
        "coordinates": [
          -3.703420898966807,
          8.577098507273558
        ]
      }
    },
    {
      "type": "Feature",
      "properties": {
        "norad_id": 66641,
        "name": "STARLINK-35923",
        "group": "last-30-days",
        "lat": 2.4612630441716967,
        "lon": 0.9256765616527298,
        "alt_km": 419.38308893401245,
        "timestamp": "2025-12-13T15:35:10.877024+00:00",
        "meta_object_name": "STARLINK-35923",
        "meta_object_id": "2025-271AA",
        "meta_epoch": "2025-12-12T20:00:01.999872",
        "meta_mean_motion": 15.49306741,
        "meta_eccentricity": 0.00014392,
        "meta_inclination": 53.1597,
        "meta_ra_of_asc_node": 186.6753,
        "meta_arg_of_pericenter": 95.9608,
        "meta_mean_anomaly": 206.7192,
        "meta_ephemeris_type": 0,
        "meta_classification_type": "U",
        "meta_norad_cat_id": 66641,
        "meta_element_set_no": 999,
        "meta_rev_at_epoch": 425,
        "meta_bstar": -0.00092845989,
        "meta_mean_motion_dot": -0.00051742,
        "meta_mean_motion_ddot": 0,
        "tle_line1": "1 66641U 25271AA  25346.83335648 -.00051742  00000+0 -92846-3 0  9992",
        "tle_line2": "2 66641  53.1597 186.6753 0001439  95.9608 206.7192 15.49306741  4253"
      },
      "geometry": {
        "type": "Point",
        "coordinates": [
          0.9256765616527298,
          2.4612630441716967
        ]
      }
    },
    {
      "type": "Feature",
      "properties": {
        "norad_id": 66642,
        "name": "STARLINK-35926",
        "group": "last-30-days",
        "lat": 4.025643065937254,
        "lon": -0.24717243079222698,
        "alt_km": 419.2113604374381,
        "timestamp": "2025-12-13T15:35:10.877034+00:00",
        "meta_object_name": "STARLINK-35926",
        "meta_object_id": "2025-271AB",
        "meta_epoch": "2025-12-12T20:00:01.999872",
        "meta_mean_motion": 15.49188722,
        "meta_eccentricity": 7.669e-05,
        "meta_inclination": 53.1595,
        "meta_ra_of_asc_node": 186.6802,
        "meta_arg_of_pericenter": 69.2964,
        "meta_mean_anomaly": 231.4739,
        "meta_ephemeris_type": 0,
        "meta_classification_type": "U",
        "meta_norad_cat_id": 66642,
        "meta_element_set_no": 999,
        "meta_rev_at_epoch": 402,
        "meta_bstar": 0.0013835152,
        "meta_mean_motion_dot": 0.00076931,
        "meta_mean_motion_ddot": 0,
        "tle_line1": "1 66642U 25271AB  25346.83335648  .00076931  00000+0  13835-2 0  9998",
        "tle_line2": "2 66642  53.1595 186.6802 0000766  69.2964 231.4739 15.49188722  4022"
      },
      "geometry": {
        "type": "Point",
        "coordinates": [
          -0.24717243079222698,
          4.025643065937254
        ]
      }
    },
    {
      "type": "Feature",
      "properties": {
        "norad_id": 66643,
        "name": "STARLINK-35918",
        "group": "last-30-days",
        "lat": 7.0492665757316075,
        "lon": -2.533770582303499,
        "alt_km": 418.6991313771814,
        "timestamp": "2025-12-13T15:35:10.877047+00:00",
        "meta_object_name": "STARLINK-35918",
        "meta_object_id": "2025-271AC",
        "meta_epoch": "2025-12-12T20:00:01.999872",
        "meta_mean_motion": 15.49304896,
        "meta_eccentricity": 0.00012978,
        "meta_inclination": 53.1595,
        "meta_ra_of_asc_node": 186.6887,
        "meta_arg_of_pericenter": 92.8736,
        "meta_mean_anomaly": 204.0545,
        "meta_ephemeris_type": 0,
        "meta_classification_type": "U",
        "meta_norad_cat_id": 66643,
        "meta_element_set_no": 999,
        "meta_rev_at_epoch": 425,
        "meta_bstar": -0.00081915509,
        "meta_mean_motion_dot": -0.00045734,
        "meta_mean_motion_ddot": 0,
        "tle_line1": "1 66643U 25271AC  25346.83335648 -.00045734  00000+0 -81916-3 0  9994",
        "tle_line2": "2 66643  53.1595 186.6887 0001297  92.8736 204.0545 15.49304896  4253"
      },
      "geometry": {
        "type": "Point",
        "coordinates": [
          -2.533770582303499,
          7.0492665757316075
        ]
      }
    },
    {
      "type": "Feature",
      "properties": {
        "norad_id": 66644,
        "name": "STARLINK-35938",
        "group": "last-30-days",
        "lat": 5.558427561177094,
        "lon": -1.4026096241759554,
        "alt_km": 419.04991678292845,
        "timestamp": "2025-12-13T15:35:10.877057+00:00",
        "meta_object_name": "STARLINK-35938",
        "meta_object_id": "2025-271AD",
        "meta_epoch": "2025-12-12T20:00:01.999872",
        "meta_mean_motion": 15.4919099,
        "meta_eccentricity": 7.049e-05,
        "meta_inclination": 53.1595,
        "meta_ra_of_asc_node": 186.6844,
        "meta_arg_of_pericenter": 60.9459,
        "meta_mean_anomaly": 237.9087,
        "meta_ephemeris_type": 0,
        "meta_classification_type": "U",
        "meta_norad_cat_id": 66644,
        "meta_element_set_no": 999,
        "meta_rev_at_epoch": 425,
        "meta_bstar": 0.0013161858,
        "meta_mean_motion_dot": 0.00073135,
        "meta_mean_motion_ddot": 0,
        "tle_line1": "1 66644U 25271AD  25346.83335648  .00073135  00000+0  13162-2 0  9996",
        "tle_line2": "2 66644  53.1595 186.6844 0000704  60.9459 237.9087 15.49190990  4251"
      },
      "geometry": {
        "type": "Point",
        "coordinates": [
          -1.4026096241759554,
          5.558427561177094
        ]
      }
    },
    {
      "type": "Feature",
      "properties": {
        "norad_id": 66645,
        "name": "SHENZHOU-22",
        "group": "last-30-days",
        "lat": -21.67983159630625,
        "lon": -142.06233811651475,
        "alt_km": 397.40805891970376,
        "timestamp": "2025-12-13T15:35:10.877069+00:00",
        "meta_object_name": "SHENZHOU-22",
        "meta_object_id": "2025-272A",
        "meta_epoch": "2025-12-12T23:18:04.584096",
        "meta_mean_motion": 15.5917806,
        "meta_eccentricity": 0.00082454,
        "meta_inclination": 41.4684,
        "meta_ra_of_asc_node": 15.3046,
        "meta_arg_of_pericenter": 32.5257,
        "meta_mean_anomaly": 327.6088,
        "meta_ephemeris_type": 0,
        "meta_classification_type": "U",
        "meta_norad_cat_id": 66645,
        "meta_element_set_no": 999,
        "meta_rev_at_epoch": 26357,
        "meta_bstar": 0.00033032775,
        "meta_mean_motion_dot": 0.00026417,
        "meta_mean_motion_ddot": 0,
        "tle_line1": "1 66645U 25272A   25346.97088639  .00026417  00000+0  33033-3 0  9999",
        "tle_line2": "2 66645  41.4684  15.3046 0008245  32.5257 327.6088 15.59178060263577"
      },
      "geometry": {
        "type": "Point",
        "coordinates": [
          -142.06233811651475,
          -21.67983159630625
        ]
      }
    },
    {
      "type": "Feature",
      "properties": {
        "norad_id": 66647,
        "name": "COSMOS 2597 (RODNIK-S 22)",
        "group": "last-30-days",
        "lat": -33.879647631722825,
        "lon": 110.95921146455923,
        "alt_km": 1502.5322660740385,
        "timestamp": "2025-12-13T15:35:10.877079+00:00",
        "meta_object_name": "COSMOS 2597 (RODNIK-S 22)",
        "meta_object_id": "2025-273A",
        "meta_epoch": "2025-12-12T22:58:08.437440",
        "meta_mean_motion": 12.41951406,
        "meta_eccentricity": 0.00078797,
        "meta_inclination": 82.4987,
        "meta_ra_of_asc_node": 286.3139,
        "meta_arg_of_pericenter": 288.6994,
        "meta_mean_anomaly": 71.323,
        "meta_ephemeris_type": 0,
        "meta_classification_type": "U",
        "meta_norad_cat_id": 66647,
        "meta_element_set_no": 999,
        "meta_rev_at_epoch": 216,
        "meta_bstar": 0.00018855839,
        "meta_mean_motion_dot": 3.6e-07,
        "meta_mean_motion_ddot": 0,
        "tle_line1": "1 66647U 25273A   25346.95704210  .00000036  00000+0  18856-3 0  9995",
        "tle_line2": "2 66647  82.4987 286.3139 0007879 288.6994  71.3230 12.41951406  2166"
      },
      "geometry": {
        "type": "Point",
        "coordinates": [
          110.95921146455923,
          -33.879647631722825
        ]
      }
    }
  ]
}